start=new Date('2021-09-04T00:00:00.000Z').valueOf();
sats=[{"ARG_OF_PERICENTER":"64.3923","BSTAR":"0.00010207000000","OBJECT_NAME":"STARLINK-1916","MEAN_ANOMALY":"295.7249","NORAD_CAT_ID":"46766","ECCENTRICITY":"0.00017750","REF_FRAME":"TEME","OBJECT_ID":"2020-074AD","ELEMENT_SET_NO":"999","APOAPSIS":"548.445","GP_ID":"184049137","DECAY_DATE":null,"MEAN_MOTION_DOT":"0.00001239","EPOCH":"2021-09-03T12:23:01.901472","REV_AT_EPOCH":"4805","LAUNCH_DATE":"2020-10-24","OBJECT_TYPE":"PAYLOAD","COUNTRY_CODE":"US","TIME_SYSTEM":"UTC","SITE":"AFETR","SEMIMAJOR_AXIS":"6925.351","RA_OF_ASC_NODE":"175.5712","RCS_SIZE":"LARGE","INCLINATION":"53.0550","MEAN_MOTION":"15.06399190","MEAN_ELEMENT_THEORY":"SGP4","MEAN_MOTION_DDOT":"0.0000000000000","PERIAPSIS":"545.987","CENTER_NAME":"EARTH","FILE":"3108332","TLE_LINE2":"2 46766  53.0550 175.5712 0001775  64.3923 295.7249 15.06399190 48052","PERIOD":"95.592","EPHEMERIS_TYPE":"0","CLASSIFICATION_TYPE":"U","TLE_LINE1":"1 46766U 20074AD  21246.51599423  .00001239  00000-0  10207-3 0  9993"},{"MEAN_MOTION":"15.06397698","INCLINATION":"53.0532","RCS_SIZE":"LARGE","SEMIMAJOR_AXIS":"6925.356","RA_OF_ASC_NODE":"175.4333","SITE":"AFETR","TIME_SYSTEM":"UTC","TLE_LINE1":"1 46767U 20074AE  21246.54550332  .00000984  00000-0  84933-4 0  9997","EPHEMERIS_TYPE":"0","PERIOD":"95.592","CLASSIFICATION_TYPE":"U","FILE":"3108332","TLE_LINE2":"2 46767  53.0532 175.4333 0001775  67.7390 292.3787 15.06397698 48057","MEAN_MOTION_DDOT":"0.0000000000000","PERIAPSIS":"545.991","CENTER_NAME":"EARTH","MEAN_ELEMENT_THEORY":"SGP4","OBJECT_ID":"2020-074AE","ELEMENT_SET_NO":"999","ECCENTRICITY":"0.00017750","NORAD_CAT_ID":"46767","REF_FRAME":"TEME","MEAN_ANOMALY":"292.3787","BSTAR":"0.00008493300000","OBJECT_NAME":"STARLINK-1917","ARG_OF_PERICENTER":"67.7390","OBJECT_TYPE":"PAYLOAD","COUNTRY_CODE":"US","REV_AT_EPOCH":"4805","LAUNCH_DATE":"2020-10-24","MEAN_MOTION_DOT":"0.00000984","EPOCH":"2021-09-03T13:05:31.486848","GP_ID":"184049885","DECAY_DATE":null,"APOAPSIS":"548.450"},{"TIME_SYSTEM":"UTC","SITE":"AFETR","SEMIMAJOR_AXIS":"6925.366","RA_OF_ASC_NODE":"176.5952","RCS_SIZE":"LARGE","INCLINATION":"53.0553","MEAN_MOTION":"15.06394323","MEAN_ELEMENT_THEORY":"SGP4","MEAN_MOTION_DDOT":"0.0000000000000","PERIAPSIS":"545.935","CENTER_NAME":"EARTH","FILE":"3108269","TLE_LINE2":"2 46768  53.0553 176.5952 0001872  59.3023 300.8150 15.06394323 48037","PERIOD":"95.593","CLASSIFICATION_TYPE":"U","EPHEMERIS_TYPE":"0","TLE_LINE1":"1 46768U 20074AF  21246.28378369 -.00000549  00000-0 -17968-4 0  9990","ARG_OF_PERICENTER":"59.3023","BSTAR":"-0.00001796800000","OBJECT_NAME":"STARLINK-1918","MEAN_ANOMALY":"300.8150","ECCENTRICITY":"0.00018720","NORAD_CAT_ID":"46768","REF_FRAME":"TEME","OBJECT_ID":"2020-074AF","ELEMENT_SET_NO":"999","APOAPSIS":"548.527","GP_ID":"184026704","DECAY_DATE":null,"MEAN_MOTION_DOT":"-0.00000549","EPOCH":"2021-09-03T06:48:38.910816","LAUNCH_DATE":"2020-10-24","REV_AT_EPOCH":"4803","OBJECT_TYPE":"PAYLOAD","COUNTRY_CODE":"US"},{"GP_ID":"184049388","DECAY_DATE":null,"APOAPSIS":"548.370","OBJECT_TYPE":"PAYLOAD","COUNTRY_CODE":"US","MEAN_MOTION_DOT":"0.00002253","EPOCH":"2021-09-03T12:01:50.994624","REV_AT_EPOCH":"4804","LAUNCH_DATE":"2020-10-24","BSTAR":"0.00017013000000","OBJECT_NAME":"STARLINK-1919","ARG_OF_PERICENTER":"58.7239","ELEMENT_SET_NO":"999","OBJECT_ID":"2020-074AG","MEAN_ANOMALY":"301.3911","ECCENTRICITY":"0.00016470","NORAD_CAT_ID":"46769","REF_FRAME":"TEME","MEAN_MOTION_DDOT":"0.0000000000000","PERIAPSIS":"546.089","CENTER_NAME":"EARTH","MEAN_ELEMENT_THEORY":"SGP4","TLE_LINE1":"1 46769U 20074AG  21246.50128466  .00002253  00000-0  17013-3 0  9999","FILE":"3108332","TLE_LINE2":"2 46769  53.0558 175.6376 0001647  58.7239 301.3911 15.06394923 48043","EPHEMERIS_TYPE":"0","PERIOD":"95.592","CLASSIFICATION_TYPE":"U","SEMIMAJOR_AXIS":"6925.364","RA_OF_ASC_NODE":"175.6376","TIME_SYSTEM":"UTC","SITE":"AFETR","INCLINATION":"53.0558","MEAN_MOTION":"15.06394923","RCS_SIZE":"LARGE"},{"OBJECT_ID":"2020-074AH","ELEMENT_SET_NO":"999","ECCENTRICITY":"0.00018370","NORAD_CAT_ID":"46770","REF_FRAME":"TEME","MEAN_ANOMALY":"299.4716","BSTAR":"0.00009608500000","OBJECT_NAME":"STARLINK-1932","ARG_OF_PERICENTER":"60.6456","OBJECT_TYPE":"PAYLOAD","COUNTRY_CODE":"US","LAUNCH_DATE":"2020-10-24","REV_AT_EPOCH":"4804","MEAN_MOTION_DOT":"0.00001150","EPOCH":"2021-09-03T12:05:45.134304","GP_ID":"184049638","DECAY_DATE":null,"APOAPSIS":"548.472","MEAN_MOTION":"15.06404563","INCLINATION":"53.0543","RCS_SIZE":"LARGE","SEMIMAJOR_AXIS":"6925.335","RA_OF_ASC_NODE":"175.6143","SITE":"AFETR","TIME_SYSTEM":"UTC","TLE_LINE1":"1 46770U 20074AH  21246.50399461  .00001150  00000-0  96085-4 0  9998","PERIOD":"95.592","EPHEMERIS_TYPE":"0","CLASSIFICATION_TYPE":"U","FILE":"3108332","TLE_LINE2":"2 46770  53.0543 175.6143 0001837  60.6456 299.4716 15.06404563 48047","MEAN_MOTION_DDOT":"0.0000000000000","PERIAPSIS":"545.927","CENTER_NAME":"EARTH","MEAN_ELEMENT_THEORY":"SGP4"},{"ELEMENT_SET_NO":"999","OBJECT_ID":"2020-074AK","NORAD_CAT_ID":"46772","ECCENTRICITY":"0.00017600","REF_FRAME":"TEME","MEAN_ANOMALY":"297.3197","BSTAR":"0.00004260500000","OBJECT_NAME":"STARLINK-1936","ARG_OF_PERICENTER":"62.7971","OBJECT_TYPE":"PAYLOAD","COUNTRY_CODE":"US","LAUNCH_DATE":"2020-10-24","REV_AT_EPOCH":"4802","MEAN_MOTION_DOT":"0.00000353","EPOCH":"2021-09-03T05:23:43.645344","GP_ID":"184024218","DECAY_DATE":null,"APOAPSIS":"548.467","MEAN_MOTION":"15.06388815","INCLINATION":"53.0541","RCS_SIZE":"LARGE","SEMIMAJOR_AXIS":"6925.383","RA_OF_ASC_NODE":"176.8755","SITE":"AFETR","TIME_SYSTEM":"UTC","TLE_LINE1":"1 46772U 20074AK  21246.22481071  .00000353  00000-0  42605-4 0  9991","CLASSIFICATION_TYPE":"U","PERIOD":"95.593","EPHEMERIS_TYPE":"0","FILE":"3108142","TLE_LINE2":"2 46772  53.0541 176.8755 0001760  62.7971 297.3197 15.06388815 48028","MEAN_MOTION_DDOT":"0.0000000000000","PERIAPSIS":"546.029","CENTER_NAME":"EARTH","MEAN_ELEMENT_THEORY":"SGP4"},{"GP_ID":"184028049","DECAY_DATE":null,"APOAPSIS":"291.290","OBJECT_TYPE":"PAYLOAD","COUNTRY_CODE":"US","MEAN_MOTION_DOT":"0.00760208","EPOCH":"2021-09-03T22:24:11.179872","REV_AT_EPOCH":"4874","LAUNCH_DATE":"2020-10-24","BSTAR":"0.00188250000000","OBJECT_NAME":"STARLINK-1937","ARG_OF_PERICENTER":"271.3023","ELEMENT_SET_NO":"999","OBJECT_ID":"2020-074AL","MEAN_ANOMALY":"88.7373","ECCENTRICITY":"0.00059460","NORAD_CAT_ID":"46773","REF_FRAME":"TEME","MEAN_MOTION_DDOT":"0.0002591800000","PERIAPSIS":"283.363","CENTER_NAME":"EARTH","MEAN_ELEMENT_THEORY":"SGP4","TLE_LINE1":"1 46773U 20074AL  21246.93346273  .00760208  25918-3  18825-2 0  9999","FILE":"3108315","TLE_LINE2":"2 46773  53.0526 128.8099 0005946 271.3023  88.7373 15.95355383 48745","PERIOD":"90.262","EPHEMERIS_TYPE":"0","CLASSIFICATION_TYPE":"U","SEMIMAJOR_AXIS":"6665.461","RA_OF_ASC_NODE":"128.8099","TIME_SYSTEM":"UTC","SITE":"AFETR","INCLINATION":"53.0526","MEAN_MOTION":"15.95355383","RCS_SIZE":"LARGE"},{"MEAN_ELEMENT_THEORY":"SGP4","MEAN_MOTION_DDOT":"0.0000000000000","PERIAPSIS":"542.875","CENTER_NAME":"EARTH","CLASSIFICATION_TYPE":"U","PERIOD":"95.526","EPHEMERIS_TYPE":"0","FILE":"3108332","TLE_LINE2":"2 46774  53.0531 174.9232 0001660  65.5490 294.5673 15.07441279 48061","TLE_LINE1":"1 46774U 20074AM  21246.51955535  .00003636  00000-0  25576-3 0  9990","SITE":"AFETR","TIME_SYSTEM":"UTC","SEMIMAJOR_AXIS":"6922.159","RA_OF_ASC_NODE":"174.9232","RCS_SIZE":"LARGE","MEAN_MOTION":"15.07441279","INCLINATION":"53.0531","APOAPSIS":"545.173","GP_ID":"184048888","DECAY_DATE":null,"REV_AT_EPOCH":"4806","LAUNCH_DATE":"2020-10-24","MEAN_MOTION_DOT":"0.00003636","EPOCH":"2021-09-03T12:28:09.582240","OBJECT_TYPE":"PAYLOAD","COUNTRY_CODE":"US","ARG_OF_PERICENTER":"65.5490","BSTAR":"0.00025576000000","OBJECT_NAME":"STARLINK-1939","ECCENTRICITY":"0.00016600","NORAD_CAT_ID":"46774","REF_FRAME":"TEME","MEAN_ANOMALY":"294.5673","OBJECT_ID":"2020-074AM","ELEMENT_SET_NO":"999"},{"INCLINATION":"53.0559","MEAN_MOTION":"15.06386881","RCS_SIZE":"LARGE","SEMIMAJOR_AXIS":"6925.389","RA_OF_ASC_NODE":"175.5081","TIME_SYSTEM":"UTC","SITE":"AFETR","TLE_LINE1":"1 46775U 20074AN  21246.52704526 -.00002772  00000-0 -16730-3 0  9998","FILE":"3108332","TLE_LINE2":"2 46775  53.0559 175.5081 0001665  58.9739 301.1413 15.06386881 48049","EPHEMERIS_TYPE":"0","PERIOD":"95.593","CLASSIFICATION_TYPE":"U","MEAN_MOTION_DDOT":"0.0000000000000","CENTER_NAME":"EARTH","PERIAPSIS":"546.101","MEAN_ELEMENT_THEORY":"SGP4","OBJECT_ID":"2020-074AN","ELEMENT_SET_NO":"999","MEAN_ANOMALY":"301.1413","ECCENTRICITY":"0.00016650","NORAD_CAT_ID":"46775","REF_FRAME":"TEME","BSTAR":"-0.00016730000000","OBJECT_NAME":"STARLINK-1945","ARG_OF_PERICENTER":"58.9739","OBJECT_TYPE":"PAYLOAD","COUNTRY_CODE":"US","MEAN_MOTION_DOT":"-0.00002772","EPOCH":"2021-09-03T12:38:56.710464","REV_AT_EPOCH":"4804","LAUNCH_DATE":"2020-10-24","GP_ID":"184049138","DECAY_DATE":null,"APOAPSIS":"548.407"},{"TLE_LINE1":"1 46776U 20074AP  21246.50494743 -.00000328  00000-0 -31339-5 0  9993","FILE":"3108332","TLE_LINE2":"2 46776  53.0544 175.6090 0001824  64.6005 295.5173 15.06393881 48049","CLASSIFICATION_TYPE":"U","PERIOD":"95.593","EPHEMERIS_TYPE":"0","MEAN_MOTION_DDOT":"0.0000000000000","PERIAPSIS":"545.969","CENTER_NAME":"EARTH","MEAN_ELEMENT_THEORY":"SGP4","INCLINATION":"53.0544","MEAN_MOTION":"15.06393881","RCS_SIZE":"LARGE","SEMIMAJOR_AXIS":"6925.367","RA_OF_ASC_NODE":"175.6090","TIME_SYSTEM":"UTC","SITE":"AFETR","OBJECT_TYPE":"PAYLOAD","COUNTRY_CODE":"US","MEAN_MOTION_DOT":"-0.00000328","EPOCH":"2021-09-03T12:07:07.457952","LAUNCH_DATE":"2020-10-24","REV_AT_EPOCH":"4804","GP_ID":"184049886","DECAY_DATE":null,"APOAPSIS":"548.495","ELEMENT_SET_NO":"999","OBJECT_ID":"2020-074AP","MEAN_ANOMALY":"295.5173","NORAD_CAT_ID":"46776","ECCENTRICITY":"0.00018240","REF_FRAME":"TEME","OBJECT_NAME":"STARLINK-1946","BSTAR":"-0.00000313390000","ARG_OF_PERICENTER":"64.6005"}];
